H1 CPF 01  gfz 2021 12 28 01  8621 tandemx   
H2 1003001  6202 36605    2021 12 28 00 59 42 2022 01 02 00 00 42   120 1 1  0 0 0
H9
10 0 59578  29502.000000  0   -5210392.260   2775269.443  -3558700.573
10 0 59578  29622.000000  0   -5482054.387   3138471.573  -2757196.324
10 0 59578  29742.000000  0   -5652231.490   3450823.242  -1907280.086
10 0 59578  29862.000000  0   -5718816.682   3705027.483  -1023843.755
10 0 59578  29982.000000  0   -5681640.178   3894782.066   -122399.929
10 0 59578  30102.000000  0   -5542462.151   4014930.279    781196.122
10 0 59578  30222.000000  0   -5304925.623   4061589.472   1671034.887
10 0 59578  30342.000000  0   -4974469.741   4032253.419   2531441.954
10 0 59578  30462.000000  0   -4558207.902   3925867.299   3347261.923
10 0 59578  30582.000000  0   -4064773.251   3742873.099   4104132.983
10 0 59578  30702.000000  0   -3504135.103   3485222.872   4788743.942
10 0 59578  30822.000000  0   -2887392.162   3156362.100   5389069.859
10 0 59578  30942.000000  0   -2226546.323   2761182.369   5894581.847
10 0 59578  31062.000000  0   -1534263.774   2305945.270   6296427.950
10 0 59578  31182.000000  0    -823627.396   1798178.841   6587581.859
10 0 59578  31302.000000  0    -107888.530   1246550.016   6762958.009
10 0 59578  31422.000000  0     599779.779    660714.817   6819495.634
10 0 59578  31542.000000  0    1286524.661     51149.056   6756208.269
10 0 59578  31662.000000  0    1940045.623   -571038.158   6574200.151
10 0 59578  31782.000000  0    2548814.270  -1194306.452   6276648.741
10 0 59578  31902.000000  0    3102278.430  -1806897.276   5868753.430
10 0 59578  32022.000000  0    3591048.136  -2397056.122   5357650.250
10 0 59578  32142.000000  0    4007058.814  -2953258.853   4752292.572
10 0 59578  32262.000000  0    4343709.298  -3464439.140   4063300.073
10 0 59578  32382.000000  0    4595971.947  -3920212.411   3302776.386
10 0 59578  32502.000000  0    4760472.678  -4311091.020   2484097.916
10 0 59578  32622.000000  0    4835538.065  -4628684.913   1621676.146
10 0 59578  32742.000000  0    4821207.253  -4865882.961    730699.276
10 0 59578  32862.000000  0    4719209.035  -5017011.261   -173142.000
10 0 59578  32982.000000  0    4532904.601  -5077963.076  -1073938.786
10 0 59578  33102.000000  0    4267197.985  -5046297.487  -1955853.215
10 0 59578  33222.000000  0    3928414.675  -4921303.887  -2803404.689
10 0 59578  33342.000000  0    3524153.307  -4704031.157  -3601747.189
10 0 59578  33462.000000  0    3063114.128  -4397281.541  -4336931.310
10 0 59578  33582.000000  0    2554909.377  -4005569.899  -4996147.179
10 0 59578  33702.000000  0    2009859.392  -3535048.712  -5567941.783
10 0 59578  33822.000000  0    1438781.799  -2993404.050  -6042407.745
10 0 59578  33942.000000  0     852777.173  -2389725.174  -6411344.851
10 0 59578  34062.000000  0     263014.264  -1734348.076  -6668391.619
10 0 59578  34182.000000  0    -319479.867  -1038676.484  -6809124.184
10 0 59578  34302.000000  0    -884020.763   -314984.730  -6831123.486
10 0 59578  34422.000000  0   -1420457.488    423794.454  -6734011.833
10 0 59578  34542.000000  0   -1919351.051   1164294.966  -6519458.158
10 0 59578  34662.000000  0   -2372136.479   1892953.118  -6191152.479
10 0 59578  34782.000000  0   -2771267.763   2596249.927  -5754749.864
10 0 59578  34902.000000  0   -3110344.051   3260958.640  -5217783.794
10 0 59578  35022.000000  0   -3384214.978   3874393.070  -4589548.160
10 0 59578  35142.000000  0   -3589063.215   4424652.331  -3880947.010
10 0 59578  35262.000000  0   -3722460.303   4900855.907  -3104313.492
10 0 59578  35382.000000  0   -3783395.221   5293364.012  -2273202.546
10 0 59578  35502.000000  0   -3772276.713   5593980.041  -1402158.944
10 0 59578  35622.000000  0   -3690906.757   5796129.947   -506462.487
10 0 59578  35742.000000  0   -3542424.564   5895010.464    398144.807
10 0 59578  35862.000000  0   -3331224.738   5887703.829   1295741.957
10 0 59578  35982.000000  0   -3062847.834   5773255.779   2170519.693
10 0 59578  36102.000000  0   -2743846.250   5552711.994   3007069.422
10 0 59578  36222.000000  0   -2381630.972   5229112.730   3790661.902
10 0 59578  36342.000000  0   -1984303.426   4807448.379   4507511.319
10 0 59578  36462.000000  0   -1560476.381   4294576.554   5145020.162
10 0 59578  36582.000000  0   -1119087.617   3699102.993   5692000.848
10 0 59578  36702.000000  0    -669211.627   3031228.433   6138868.490
10 0 59578  36822.000000  0    -219873.822   2302566.249   6477803.320
10 0 59578  36942.000000  0     220129.192   1525935.779   6702881.110
10 0 59578  37062.000000  0     642400.953    715133.446   6810171.585
10 0 59578  37182.000000  0    1039104.311   -115313.398   6797801.585
10 0 59578  37302.000000  0    1403105.817   -950405.584   6665986.404
10 0 59578  37422.000000  0    1728103.743  -1774942.791   6417026.723
10 0 59578  37542.000000  0    2008737.571  -2573799.621   6055271.458
10 0 59578  37662.000000  0    2240677.386  -3332204.456   5587046.804
10 0 59578  37782.000000  0    2420691.631  -4036015.420   5020550.743
10 0 59578  37902.000000  0    2546691.501  -4671987.912   4365715.058
10 0 59578  38022.000000  0    2617752.901  -5228030.367   3634036.320
10 0 59578  38142.000000  0    2634113.894  -5693442.095   2838376.209
10 0 59578  38262.000000  0    2597146.817  -6059128.101   1992735.138
10 0 59578  38382.000000  0    2509306.240  -6317783.251   1112002.019
10 0 59578  38502.000000  0    2374054.573  -6464042.955    211687.808
10 0 59578  38622.000000  0    2195766.923  -6494598.566   -692354.888
10 0 59578  38742.000000  0    1979616.317  -6408270.432  -1584221.563
10 0 59578  38862.000000  0    1731441.562  -6206036.532  -2448244.141
10 0 59578  38982.000000  0    1457602.895  -5891019.145  -3269273.724
10 0 59578  39102.000000  0    1164829.008  -5468424.758  -4032949.853
10 0 59578  39222.000000  0     860061.314  -4945446.547  -4725950.760
10 0 59578  39342.000000  0     550296.921  -4331129.805  -5336221.597
10 0 59578  39462.000000  0     242434.849  -3636204.701  -5853176.745
10 0 59578  39582.000000  0     -56871.327  -2872889.744  -6267873.541
10 0 59578  39702.000000  0    -341351.243  -2054671.302  -6573155.468
10 0 59578  39822.000000  0    -605243.713  -1196063.543  -6763764.317
10 0 59578  39942.000000  0    -843408.538   -312352.994  -6836421.819
10 0 59578  40062.000000  0   -1051422.744    580669.492  -6789879.418
10 0 59578  40182.000000  0   -1225660.426   1466983.568  -6624936.520
10 0 59578  40302.000000  0   -1363354.546   2330619.457  -6344428.111
10 0 59578  40422.000000  0   -1462640.102   3155938.641  -5953182.362
10 0 59578  40542.000000  0   -1522578.775   3927914.072  -5457947.145
10 0 59578  40662.000000  0   -1543163.587   4632403.159  -4867284.562
10 0 59578  40782.000000  0   -1525304.333   5256410.957  -4191434.641
10 0 59578  40902.000000  0   -1470793.186   5788337.008  -3442147.197
10 0 59578  41022.000000  0   -1382250.486   6218199.804  -2632485.140
10 0 59578  41142.000000  0   -1263052.267   6537835.482  -1776602.406
10 0 59578  41262.000000  0   -1117240.526   6741065.026   -889497.263
10 0 59578  41382.000000  0    -949418.353   6823824.212     13252.187
10 0 59578  41502.000000  0    -764631.834   6784254.929    915767.131
10 0 59578  41622.000000  0    -568241.896   6622751.776   1802157.367
10 0 59578  41742.000000  0    -365789.577   6341960.118   2656811.575
10 0 59578  41862.000000  0    -162858.468   5946728.759   3464679.332
10 0 59578  41982.000000  0      35062.038   5444020.888   4211541.232
10 0 59578  42102.000000  0     222709.546   4842785.337   4884265.686
10 0 59578  42222.000000  0     395175.511   4153782.308   5471041.775
10 0 59578  42342.000000  0     548021.498   3389382.004   5961580.714
10 0 59578  42462.000000  0     677382.690   2563334.864   6347293.674
10 0 59578  42582.000000  0     780056.018   1690517.132   6621435.951
10 0 59578  42702.000000  0     853572.294    786658.675   6779219.076
10 0 59578  42822.000000  0     896250.669   -131942.209   6817888.437
10 0 59578  42942.000000  0     907234.624  -1048711.372   6736768.897
10 0 59578  43062.000000  0     886508.729  -1947097.849   6537276.732
10 0 59578  43182.000000  0     834895.930  -2810872.468   6222896.861
10 0 59578  43302.000000  0     754035.309  -3624423.086   5799125.439
10 0 59578  43422.000000  0     646340.565  -4373038.316   5273376.833
10 0 59578  43542.000000  0     514941.623  -5043176.333   4654860.280
10 0 59578  43662.000000  0     363609.147  -5622717.050   3954425.797
10 0 59578  43782.000000  0     196662.408  -6101191.881   3184377.717
10 0 59578  43902.000000  0      18863.090  -6469983.394   2358259.317
10 0 59578  44022.000000  0    -164702.715  -6722489.568   1490612.399
10 0 59578  44142.000000  0    -348751.119  -6854250.927    596718.045
10 0 59578  44262.000000  0    -527933.247  -6863036.261   -307681.139
10 0 59578  44382.000000  0    -696970.127  -6748880.909  -1206668.380
10 0 59578  44502.000000  0    -850785.606  -6514078.699  -2084441.535
10 0 59578  44622.000000  0    -984634.588  -6163129.852  -2925597.423
10 0 59578  44742.000000  0   -1094223.730  -5702645.872  -3715407.301
10 0 59578  44862.000000  0   -1175821.268  -5141213.014  -4440077.040
10 0 59578  44982.000000  0   -1226353.042  -4489218.986  -5086985.398
10 0 59578  45102.000000  0   -1243483.131  -3758649.474  -5644897.261
10 0 59578  45222.000000  0   -1225677.302  -2962858.957  -6104149.895
10 0 59578  45342.000000  0   -1172248.242  -2116320.447  -6456809.881
10 0 59578  45462.000000  0   -1083382.152  -1234359.576  -6696798.418
10 0 59578  45582.000000  0    -960146.771   -332878.870  -6819985.504
10 0 59578  45702.000000  0    -804480.360    571924.609  -6824253.115
10 0 59578  45822.000000  0    -619161.245   1463843.014  -6709526.780
10 0 59578  45942.000000  0    -407759.699   2326940.315  -6477776.724
99
